[{"OBJECT_NAME":"STARLINK-34978","OBJECT_ID":"2025-194B","EPOCH":"2026-03-09T13:47:55.712832","MEAN_MOTION":15.05648422,"ECCENTRICITY":0.000242,"INCLINATION":97.6018,"RA_OF_ASC_NODE":284.3301,"ARG_OF_PERICENTER":75.6607,"MEAN_ANOMALY":284.4889,"EPHEMERIS_TYPE":0,"CLASSIFICATION_TYPE":"U","NORAD_CAT_ID":65435,"ELEMENT_SET_NO":999,"REV_AT_EPOCH":2963,"BSTAR":0.00024896,"MEAN_MOTION_DOT":3.533e-5,"MEAN_MOTION_DDOT":0},{"OBJECT_NAME":"DELTA 1 R\/B","OBJECT_ID":"1972-058B","EPOCH":"2026-03-09T22:14:45.150144","MEAN_MOTION":14.86907844,"ECCENTRICITY":0.00837103,"INCLINATION":98.4819,"RA_OF_ASC_NODE":287.4026,"ARG_OF_PERICENTER":251.5853,"MEAN_ANOMALY":107.6247,"EPHEMERIS_TYPE":0,"CLASSIFICATION_TYPE":"U","NORAD_CAT_ID":6127,"ELEMENT_SET_NO":999,"REV_AT_EPOCH":68503,"BSTAR":0.00031466372,"MEAN_MOTION_DOT":2.928e-5,"MEAN_MOTION_DDOT":0}]
